{
  "type": "FeatureCollection",
  "features": [
    {
      "type": "Feature",
      "properties": {
        "norad_id": 34560,
        "name": "COSMOS 2251 DEB",
        "group": "cosmos-2251-debris",
        "lat": -72.51363579542009,
        "lon": -1.9134322617997197,
        "alt_km": 656.3432134526092,
        "timestamp": "2025-12-27T21:25:02.911404+00:00",
        "meta_object_name": "COSMOS 2251 DEB",
        "meta_object_id": "1993-036UW",
        "meta_epoch": "2025-12-27T09:04:13.971072",
        "meta_mean_motion": 14.72521543,
        "meta_eccentricity": 0.0013451,
        "meta_inclination": 74.0171,
        "meta_ra_of_asc_node": 113.614,
        "meta_arg_of_pericenter": 196.1383,
        "meta_mean_anomaly": 220.4883,
        "meta_ephemeris_type": 0,
        "meta_classification_type": "U",
        "meta_norad_cat_id": 34560,
        "meta_element_set_no": 999,
        "meta_rev_at_epoch": 88467,
        "meta_bstar": 0.0024135,
        "meta_mean_motion_dot": 0.00015358,
        "meta_mean_motion_ddot": 0,
        "tle_line1": "1 34560U 93036UW  25361.37793948  .00015358  00000+0  24135-2 0  9994",
        "tle_line2": "2 34560  74.0171 113.6140 0013451 196.1383 220.4883 14.72521543884675"
      },
      "geometry": {
        "type": "Point",
        "coordinates": [
          -1.9134322617997197,
          -72.51363579542009
        ]
      }
    },
    {
      "type": "Feature",
      "properties": {
        "norad_id": 34563,
        "name": "COSMOS 2251 DEB",
        "group": "cosmos-2251-debris",
        "lat": 57.9656283910366,
        "lon": -157.35809999507552,
        "alt_km": 739.8189256435835,
        "timestamp": "2025-12-27T21:25:02.911414+00:00",
        "meta_object_name": "COSMOS 2251 DEB",
        "meta_object_id": "1993-036UZ",
        "meta_epoch": "2025-12-26T18:37:48.023328",
        "meta_mean_motion": 14.46553942,
        "meta_eccentricity": 0.00139023,
        "meta_inclination": 74.0365,
        "meta_ra_of_asc_node": 177.5011,
        "meta_arg_of_pericenter": 270.8505,
        "meta_mean_anomaly": 100.91,
        "meta_ephemeris_type": 0,
        "meta_classification_type": "U",
        "meta_norad_cat_id": 34563,
        "meta_element_set_no": 999,
        "meta_rev_at_epoch": 88400,
        "meta_bstar": 0.00049252066,
        "meta_mean_motion_dot": 1.75e-05,
        "meta_mean_motion_ddot": 0,
        "tle_line1": "1 34563U 93036UZ  25360.77625027  .00001750  00000+0  49252-3 0  9991",
        "tle_line2": "2 34563  74.0365 177.5011 0013902 270.8505 100.9100 14.46553942884006"
      },
      "geometry": {
        "type": "Point",
        "coordinates": [
          -157.35809999507552,
          57.9656283910366
        ]
      }
    },
    {
      "type": "Feature",
      "properties": {
        "norad_id": 34564,
        "name": "COSMOS 2251 DEB",
        "group": "cosmos-2251-debris",
        "lat": -58.773640437988675,
        "lon": 58.16239307525083,
        "alt_km": 757.8988115994271,
        "timestamp": "2025-12-27T21:25:02.911424+00:00",
        "meta_object_name": "COSMOS 2251 DEB",
        "meta_object_id": "1993-036VA",
        "meta_epoch": "2025-12-27T08:52:57.268992",
        "meta_mean_motion": 14.40713527,
        "meta_eccentricity": 0.0019492,
        "meta_inclination": 74.0311,
        "meta_ra_of_asc_node": 210.9435,
        "meta_arg_of_pericenter": 312.8662,
        "meta_mean_anomaly": 102.3071,
        "meta_ephemeris_type": 0,
        "meta_classification_type": "U",
        "meta_norad_cat_id": 34564,
        "meta_element_set_no": 999,
        "meta_rev_at_epoch": 88217,
        "meta_bstar": 0.00024552,
        "meta_mean_motion_dot": 7.6e-06,
        "meta_mean_motion_ddot": 0,
        "tle_line1": "1 34564U 93036VA  25361.37010728  .00000760  00000+0  24552-3 0  9991",
        "tle_line2": "2 34564  74.0311 210.9435 0019492 312.8662 102.3071 14.40713527882171"
      },
      "geometry": {
        "type": "Point",
        "coordinates": [
          58.16239307525083,
          -58.773640437988675
        ]
      }
    },
    {
      "type": "Feature",
      "properties": {
        "norad_id": 34567,
        "name": "COSMOS 2251 DEB",
        "group": "cosmos-2251-debris",
        "lat": 71.62435088562111,
        "lon": -109.9664766872007,
        "alt_km": 814.4936840263117,
        "timestamp": "2025-12-27T21:25:02.911434+00:00",
        "meta_object_name": "COSMOS 2251 DEB",
        "meta_object_id": "1993-036VD",
        "meta_epoch": "2025-12-27T11:09:00.670176",
        "meta_mean_motion": 14.24033797,
        "meta_eccentricity": 0.0074002,
        "meta_inclination": 74.0414,
        "meta_ra_of_asc_node": 130.2785,
        "meta_arg_of_pericenter": 201.3269,
        "meta_mean_anomaly": 226.43,
        "meta_ephemeris_type": 0,
        "meta_classification_type": "U",
        "meta_norad_cat_id": 34567,
        "meta_element_set_no": 999,
        "meta_rev_at_epoch": 87334,
        "meta_bstar": 0.00029991,
        "meta_mean_motion_dot": 6.83e-06,
        "meta_mean_motion_ddot": 0,
        "tle_line1": "1 34567U 93036VD  25361.46459109  .00000683  00000+0  29991-3 0  9990",
        "tle_line2": "2 34567  74.0414 130.2785 0074002 201.3269 226.4300 14.24033797873341"
      },
      "geometry": {
        "type": "Point",
        "coordinates": [
          -109.9664766872007,
          71.62435088562111
        ]
      }
    },
    {
      "type": "Feature",
      "properties": {
        "norad_id": 34569,
        "name": "COSMOS 2251 DEB",
        "group": "cosmos-2251-debris",
        "lat": -51.384713169644506,
        "lon": 149.66829018774226,
        "alt_km": 741.7414338457957,
        "timestamp": "2025-12-27T21:25:02.911444+00:00",
        "meta_object_name": "COSMOS 2251 DEB",
        "meta_object_id": "1993-036VF",
        "meta_epoch": "2025-12-27T06:47:51.643968",
        "meta_mean_motion": 14.2478831,
        "meta_eccentricity": 0.0157923,
        "meta_inclination": 73.9895,
        "meta_ra_of_asc_node": 171.8379,
        "meta_arg_of_pericenter": 356.915,
        "meta_mean_anomaly": 66.8709,
        "meta_ephemeris_type": 0,
        "meta_classification_type": "U",
        "meta_norad_cat_id": 34569,
        "meta_element_set_no": 999,
        "meta_rev_at_epoch": 87175,
        "meta_bstar": 0.00049613,
        "meta_mean_motion_dot": 1.29e-05,
        "meta_mean_motion_ddot": 0,
        "tle_line1": "1 34569U 93036VF  25361.28323662  .00001290  00000+0  49613-3 0  9994",
        "tle_line2": "2 34569  73.9895 171.8379 0157923 356.9150  66.8709 14.24788310871754"
      },
      "geometry": {
        "type": "Point",
        "coordinates": [
          149.66829018774226,
          -51.384713169644506
        ]
      }
    },
    {
      "type": "Feature",
      "properties": {
        "norad_id": 34570,
        "name": "COSMOS 2251 DEB",
        "group": "cosmos-2251-debris",
        "lat": -41.44085119232202,
        "lon": 177.21193481159344,
        "alt_km": 955.6787046493164,
        "timestamp": "2025-12-27T21:25:02.911455+00:00",
        "meta_object_name": "COSMOS 2251 DEB",
        "meta_object_id": "1993-036VG",
        "meta_epoch": "2025-12-27T07:01:34.646304",
        "meta_mean_motion": 13.99845423,
        "meta_eccentricity": 0.0190361,
        "meta_inclination": 73.9553,
        "meta_ra_of_asc_node": 192.973,
        "meta_arg_of_pericenter": 72.2007,
        "meta_mean_anomaly": 105.7081,
        "meta_ephemeris_type": 0,
        "meta_classification_type": "U",
        "meta_norad_cat_id": 34570,
        "meta_element_set_no": 999,
        "meta_rev_at_epoch": 85804,
        "meta_bstar": 0.00052733,
        "meta_mean_motion_dot": 8.81e-06,
        "meta_mean_motion_ddot": 0,
        "tle_line1": "1 34570U 93036VG  25361.29276211  .00000881  00000+0  52733-3 0  9996",
        "tle_line2": "2 34570  73.9553 192.9730 0190361  72.2007 105.7081 13.99845423858047"
      },
      "geometry": {
        "type": "Point",
        "coordinates": [
          177.21193481159344,
          -41.44085119232202
        ]
      }
    },
    {
      "type": "Feature",
      "properties": {
        "norad_id": 34571,
        "name": "COSMOS 2251 DEB",
        "group": "cosmos-2251-debris",
        "lat": -33.17350783907542,
        "lon": 143.250361755172,
        "alt_km": 769.2075721219326,
        "timestamp": "2025-12-27T21:25:02.911465+00:00",
        "meta_object_name": "COSMOS 2251 DEB",
        "meta_object_id": "1993-036VH",
        "meta_epoch": "2025-12-27T09:58:51.014208",
        "meta_mean_motion": 14.49086508,
        "meta_eccentricity": 0.0064593,
        "meta_inclination": 74.04,
        "meta_ra_of_asc_node": 154.9258,
        "meta_arg_of_pericenter": 186.8499,
        "meta_mean_anomaly": 173.1785,
        "meta_ephemeris_type": 0,
        "meta_classification_type": "U",
        "meta_norad_cat_id": 34571,
        "meta_element_set_no": 999,
        "meta_rev_at_epoch": 87506,
        "meta_bstar": 0.0033608,
        "meta_mean_motion_dot": 0.00013109,
        "meta_mean_motion_ddot": 0,
        "tle_line1": "1 34571U 93036VH  25361.41586822  .00013109  00000+0  33608-2 0  9999",
        "tle_line2": "2 34571  74.0400 154.9258 0064593 186.8499 173.1785 14.49086508875066"
      },
      "geometry": {
        "type": "Point",
        "coordinates": [
          143.250361755172,
          -33.17350783907542
        ]
      }
    }
  ]
}